[{"CCSDS_OMM_VERS":"3.0","COMMENT":"GENERATED VIA SPACE-TRACK.ORG API","CREATION_DATE":"2013-07-25T06:50:38","ORIGINATOR":"18 SPCS","OBJECT_NAME":"COSMOS 2251 DEB","OBJECT_ID":"1993-036BBU","CENTER_NAME":"EARTH","REF_FRAME":"TEME","TIME_SYSTEM":"UTC","MEAN_ELEMENT_THEORY":"SGP4","EPOCH":"2012-09-27T13:18:11.858687","MEAN_MOTION":"15.24641848","ECCENTRICITY":"0.00897980","INCLINATION":"73.9242","RA_OF_ASC_NODE":"230.4384","ARG_OF_PERICENTER":"170.4905","MEAN_ANOMALY":"194.4219","EPHEMERIS_TYPE":"0","CLASSIFICATION_TYPE":"U","NORAD_CAT_ID":"36469","ELEMENT_SET_NO":"999","REV_AT_EPOCH":"16190","BSTAR":"0.00208460000000","MEAN_MOTION_DOT":"0.00058157","MEAN_MOTION_DDOT":"0.0000000000000","SEMIMAJOR_AXIS":"6870.002","PERIOD":"94.448","APOAPSIS":"553.558","PERIAPSIS":"430.176","OBJECT_TYPE":"DEBRIS","RCS_SIZE":"SMALL","COUNTRY_CODE":"CIS","LAUNCH_DATE":"1993-06-16","SITE":"PKMTR","DECAY_DATE":"2013-07-24","FILE":"1521663","GP_ID":"93412087","TLE_LINE0":"0 COSMOS 2251 DEB","TLE_LINE1":"1 36469U 93036BBU 12271.55430392  .00058157  00000-0  20846-2 0  9991","TLE_LINE2":"2 36469 073.9242 230.4384 0089798 170.4905 194.4219 15.24641848161908"},{"CCSDS_OMM_VERS":"3.0","COMMENT":"GENERATED VIA SPACE-TRACK.ORG API","CREATION_DATE":"2026-03-28T11:26:42","ORIGINATOR":"18 SPCS","OBJECT_NAME":"COSMOS 2251 DEB","OBJECT_ID":"1993-036BBV","CENTER_NAME":"EARTH","REF_FRAME":"TEME","TIME_SYSTEM":"UTC","MEAN_ELEMENT_THEORY":"SGP4","EPOCH":"2026-03-28T02:56:24.382752","MEAN_MOTION":"15.22976700","ECCENTRICITY":"0.00262962","INCLINATION":"73.8352","RA_OF_ASC_NODE":"32.7790","ARG_OF_PERICENTER":"204.5931","MEAN_ANOMALY":"155.4015","EPHEMERIS_TYPE":"0","CLASSIFICATION_TYPE":"U","NORAD_CAT_ID":"36470","ELEMENT_SET_NO":"999","REV_AT_EPOCH":"67689","BSTAR":"0.00408772330000","MEAN_MOTION_DOT":"0.00098259","MEAN_MOTION_DDOT":"0.0000000000000","SEMIMAJOR_AXIS":"6875.005","PERIOD":"94.552","APOAPSIS":"514.948","PERIAPSIS":"478.791","OBJECT_TYPE":"DEBRIS","RCS_SIZE":"SMALL","COUNTRY_CODE":"CIS","LAUNCH_DATE":"1993-06-16","SITE":"PKMTR","DECAY_DATE":null,"FILE":"5103506","GP_ID":"317398281","TLE_LINE0":"0 COSMOS 2251 DEB","TLE_LINE1":"1 36470U 93036BBV 26087.12250443  .00098259  00000-0  40877-2 0  9996","TLE_LINE2":"2 36470  73.8352  32.7790 0026296 204.5931 155.4015 15.22976700676893"},{"CCSDS_OMM_VERS":"3.0","COMMENT":"GENERATED VIA SPACE-TRACK.ORG API","CREATION_DATE":"2018-02-17T07:11:42","ORIGINATOR":"18 SPCS","OBJECT_NAME":"COSMOS 2251 DEB","OBJECT_ID":"1993-036BBW","CENTER_NAME":"EARTH","REF_FRAME":"TEME","TIME_SYSTEM":"UTC","MEAN_ELEMENT_THEORY":"SGP4","EPOCH":"2018-02-15T19:20:52.131552","MEAN_MOTION":"15.86924208","ECCENTRICITY":"0.00188470","INCLINATION":"73.8242","RA_OF_ASC_NODE":"95.0569","ARG_OF_PERICENTER":"299.4620","MEAN_ANOMALY":"71.8730","EPHEMERIS_TYPE":"0","CLASSIFICATION_TYPE":"U","NORAD_CAT_ID":"36471","ELEMENT_SET_NO":"999","REV_AT_EPOCH":"47398","BSTAR":"0.00077154000000","MEAN_MOTION_DOT":"0.00200454","MEAN_MOTION_DDOT":"0.0000157250000","SEMIMAJOR_AXIS":"6689.049","PERIOD":"90.741","APOAPSIS":"323.520","PERIAPSIS":"298.307","OBJECT_TYPE":"DEBRIS","RCS_SIZE":"SMALL","COUNTRY_CODE":"CIS","LAUNCH_DATE":"1993-06-16","SITE":"PKMTR","DECAY_DATE":"2018-03-13","FILE":"2248396","GP_ID":"117982736","TLE_LINE0":"0 COSMOS 2251 DEB","TLE_LINE1":"1 36471U 93036BBW 18046.80615893 +.00200454 +15725-4 +77154-3 0  9997","TLE_LINE2":"2 36471 073.8242 095.0569 0018847 299.4620 071.8730 15.86924208473985"},{"CCSDS_OMM_VERS":"3.0","COMMENT":"GENERATED VIA SPACE-TRACK.ORG API","CREATION_DATE":"2012-03-01T05:05:02","ORIGINATOR":"18 SPCS","OBJECT_NAME":"COSMOS 2251 DEB","OBJECT_ID":"1993-036BBX","CENTER_NAME":"EARTH","REF_FRAME":"TEME","TIME_SYSTEM":"UTC","MEAN_ELEMENT_THEORY":"SGP4","EPOCH":"2012-02-16T09:42:59.238720","MEAN_MOTION":"15.71338728","ECCENTRICITY":"0.00576560","INCLINATION":"74.0053","RA_OF_ASC_NODE":"302.9162","ARG_OF_PERICENTER":"227.3394","MEAN_ANOMALY":"118.8796","EPHEMERIS_TYPE":"0","CLASSIFICATION_TYPE":"U","NORAD_CAT_ID":"36472","ELEMENT_SET_NO":"999","REV_AT_EPOCH":"14195","BSTAR":"0.00400210000000","MEAN_MOTION_DOT":"0.00597210","MEAN_MOTION_DDOT":"0.0000000000000","SEMIMAJOR_AXIS":"6733.211","PERIOD":"91.641","APOAPSIS":"393.897","PERIAPSIS":"316.255","OBJECT_TYPE":"DEBRIS","RCS_SIZE":"SMALL","COUNTRY_CODE":"CIS","LAUNCH_DATE":"1993-06-16","SITE":"PKMTR","DECAY_DATE":"2012-03-03","FILE":"1248117","GP_ID":"87527174","TLE_LINE0":"0 COSMOS 2251 DEB","TLE_LINE1":"1 36472U 93036BBX 12047.40485230  .00597210  00000-0  40021-2 0  9996","TLE_LINE2":"2 36472 074.0053 302.9162 0057656 227.3394 118.8796 15.71338728141950"},{"CCSDS_OMM_VERS":"3.0","COMMENT":"GENERATED VIA SPACE-TRACK.ORG API","CREATION_DATE":"2013-01-17T10:09:55","ORIGINATOR":"18 SPCS","OBJECT_NAME":"COSMOS 2251 DEB","OBJECT_ID":"1993-036BBY","CENTER_NAME":"EARTH","REF_FRAME":"TEME","TIME_SYSTEM":"UTC","MEAN_ELEMENT_THEORY":"SGP4","EPOCH":"2012-01-19T10:58:25.521311","MEAN_MOTION":"15.14338743","ECCENTRICITY":"0.01497760","INCLINATION":"74.0421","RA_OF_ASC_NODE":"29.8704","ARG_OF_PERICENTER":"344.4055","MEAN_ANOMALY":"14.6507","EPHEMERIS_TYPE":"0","CLASSIFICATION_TYPE":"U","NORAD_CAT_ID":"36473","ELEMENT_SET_NO":"999","REV_AT_EPOCH":"13685","BSTAR":"0.00221540000000","MEAN_MOTION_DOT":"0.00054182","MEAN_MOTION_DDOT":"0.0000000000000","SEMIMAJOR_AXIS":"6901.128","PERIOD":"95.091","APOAPSIS":"626.355","PERIAPSIS":"419.630","OBJECT_TYPE":"DEBRIS","RCS_SIZE":"SMALL","COUNTRY_CODE":"CIS","LAUNCH_DATE":"1993-06-16","SITE":"PKMTR","DECAY_DATE":"2013-01-25","FILE":"1423312","GP_ID":"91934878","TLE_LINE0":"0 COSMOS 2251 DEB","TLE_LINE1":"1 36473U 93036BBY 12019.45723983  .00054182  00000-0  22154-2 0  9994","TLE_LINE2":"2 36473 074.0421 029.8704 0149776 344.4055 014.6507 15.14338743136857"},{"CCSDS_OMM_VERS":"3.0","COMMENT":"GENERATED VIA SPACE-TRACK.ORG API","CREATION_DATE":"2015-12-20T06:36:54","ORIGINATOR":"18 SPCS","OBJECT_NAME":"COSMOS 2251 DEB","OBJECT_ID":"1993-036BBZ","CENTER_NAME":"EARTH","REF_FRAME":"TEME","TIME_SYSTEM":"UTC","MEAN_ELEMENT_THEORY":"SGP4","EPOCH":"2015-12-20T04:32:02.530752","MEAN_MOTION":"15.60918323","ECCENTRICITY":"0.00238980","INCLINATION":"73.9226","RA_OF_ASC_NODE":"64.8800","ARG_OF_PERICENTER":"38.6558","MEAN_ANOMALY":"321.6365","EPHEMERIS_TYPE":"0","CLASSIFICATION_TYPE":"U","NORAD_CAT_ID":"36474","ELEMENT_SET_NO":"999","REV_AT_EPOCH":"33729","BSTAR":"0.00336730000000","MEAN_MOTION_DOT":"0.00296068","MEAN_MOTION_DDOT":"0.0000000000000","SEMIMAJOR_AXIS":"6763.140","PERIOD":"92.253","APOAPSIS":"401.167","PERIAPSIS":"368.842","OBJECT_TYPE":"DEBRIS","RCS_SIZE":"SMALL","COUNTRY_CODE":"CIS","LAUNCH_DATE":"1993-06-16","SITE":"PKMTR","DECAY_DATE":"2016-01-25","FILE":"1968791","GP_ID":"102268721","TLE_LINE0":"0 COSMOS 2251 DEB","TLE_LINE1":"1 36474U 93036BBZ 15354.18891818  .00296068  00000-0  33673-2 0  9992","TLE_LINE2":"2 36474  73.9226  64.8800 0023898  38.6558 321.6365 15.60918323337294"},{"CCSDS_OMM_VERS":"3.0","COMMENT":"GENERATED VIA SPACE-TRACK.ORG API","CREATION_DATE":"2012-01-26T14:07:15","ORIGINATOR":"18 SPCS","OBJECT_NAME":"COSMOS 2251 DEB","OBJECT_ID":"1993-036BCA","CENTER_NAME":"EARTH","REF_FRAME":"TEME","TIME_SYSTEM":"UTC","MEAN_ELEMENT_THEORY":"SGP4","EPOCH":"2012-01-17T08:24:41.480639","MEAN_MOTION":"15.70789040","ECCENTRICITY":"0.00506670","INCLINATION":"74.0163","RA_OF_ASC_NODE":"20.4665","ARG_OF_PERICENTER":"331.2789","MEAN_ANOMALY":"34.3655","EPHEMERIS_TYPE":"0","CLASSIFICATION_TYPE":"U","NORAD_CAT_ID":"36475","ELEMENT_SET_NO":"999","REV_AT_EPOCH":"13287","BSTAR":"0.00779870000000","MEAN_MOTION_DOT":"0.01158634","MEAN_MOTION_DDOT":"0.0000000000000","SEMIMAJOR_AXIS":"6734.782","PERIOD":"91.673","APOAPSIS":"390.770","PERIAPSIS":"322.523","OBJECT_TYPE":"DEBRIS","RCS_SIZE":"SMALL","COUNTRY_CODE":"CIS","LAUNCH_DATE":"1993-06-16","SITE":"PKMTR","DECAY_DATE":"2012-01-25","FILE":"1229434","GP_ID":"86999732","TLE_LINE0":"0 COSMOS 2251 DEB","TLE_LINE1":"1 36475U 93036BCA 12017.35048010  .01158634  00000-0  77987-2 0  9996","TLE_LINE2":"2 36475 074.0163 020.4665 0050667 331.2789 034.3655 15.70789040132876"},{"CCSDS_OMM_VERS":"3.0","COMMENT":"GENERATED VIA SPACE-TRACK.ORG API","CREATION_DATE":"2024-08-15T17:21:54","ORIGINATOR":"18 SPCS","OBJECT_NAME":"COSMOS 2251 DEB","OBJECT_ID":"1993-036BCB","CENTER_NAME":"EARTH","REF_FRAME":"TEME","TIME_SYSTEM":"UTC","MEAN_ELEMENT_THEORY":"SGP4","EPOCH":"2024-08-15T01:10:39.875232","MEAN_MOTION":"15.81925157","ECCENTRICITY":"0.00309750","INCLINATION":"73.9845","RA_OF_ASC_NODE":"153.3704","ARG_OF_PERICENTER":"191.2439","MEAN_ANOMALY":"168.8102","EPHEMERIS_TYPE":"0","CLASSIFICATION_TYPE":"U","NORAD_CAT_ID":"36476","ELEMENT_SET_NO":"999","REV_AT_EPOCH":"64536","BSTAR":"0.02370200000000","MEAN_MOTION_DOT":"0.06101973","MEAN_MOTION_DDOT":"0.0000000000000","SEMIMAJOR_AXIS":"6703.134","PERIOD":"91.028","APOAPSIS":"345.762","PERIAPSIS":"304.236","OBJECT_TYPE":"DEBRIS","RCS_SIZE":"SMALL","COUNTRY_CODE":"CIS","LAUNCH_DATE":"1993-06-16","SITE":"PKMTR","DECAY_DATE":"2024-08-16","FILE":"4437176","GP_ID":"265241242","TLE_LINE0":"0 COSMOS 2251 DEB","TLE_LINE1":"1 36476U 93036BCB 24228.04907263  .06101973  00000-0  23702-1 0  9998","TLE_LINE2":"2 36476  73.9845 153.3704 0030975 191.2439 168.8102 15.81925157645364"}]